{
    "links": {
        "self": "http://www.neowsapp.com/rest/v1/neo/3710158?api_key=iIulBulltgU6a56xZRHN4H3l9WmuAYTsLGpBGhQ2"
    },
    "id": "3710158",
    "neo_reference_id": "3710158",
    "name": "(2015 CV12)",
    "designation": "2015 CV12",
    "nasa_jpl_url": "http://ssd.jpl.nasa.gov/sbdb.cgi?sstr=3710158",
    "absolute_magnitude_h": 22.1,
    "estimated_diameter": {
        "kilometers": {
            "estimated_diameter_min": 0.1010543415,
            "estimated_diameter_max": 0.2259643771
        },
        "meters": {
            "estimated_diameter_min": 101.054341542,
            "estimated_diameter_max": 225.9643771094
        },
        "miles": {
            "estimated_diameter_min": 0.0627922373,
            "estimated_diameter_max": 0.140407711
        },
        "feet": {
            "estimated_diameter_min": 331.5431259047,
            "estimated_diameter_max": 741.3529669956
        }
    },
    "is_potentially_hazardous_asteroid": false,
    "close_approach_data": [
        {
            "close_approach_date": "1985-11-13",
            "close_approach_date_full": "1985-Nov-13 13:10",
            "epoch_date_close_approach": 500735400000,
            "relative_velocity": {
                "kilometers_per_second": "4.5679651177",
                "kilometers_per_hour": "16444.6744236044",
                "miles_per_hour": "10218.0811717113"
            },
            "miss_distance": {
                "astronomical": "1.0248697342",
                "lunar": "398.6743266038",
                "kilometers": "153318329.263786154",
                "miles": "95267592.1875667652"
            },
            "orbiting_body": "Juptr"
        },
        {
            "close_approach_date": "2015-02-05",
            "close_approach_date_full": "2015-Feb-05 04:16",
            "epoch_date_close_approach": 1423109760000,
            "relative_velocity": {
                "kilometers_per_second": "5.8470728024",
                "kilometers_per_hour": "21049.4620885169",
                "miles_per_hour": "13079.3171516121"
            },
            "miss_distance": {
                "astronomical": "0.3118195846",
                "lunar": "121.2978184094",
                "kilometers": "46647545.680444802",
                "miles": "28985440.8130781876"
            },
            "orbiting_body": "Earth"
        },
        {
            "close_approach_date": "2021-08-10",
            "close_approach_date_full": "2021-Aug-10 01:47",
            "epoch_date_close_approach": 1628560020000,
            "relative_velocity": {
                "kilometers_per_second": "6.1092803719",
                "kilometers_per_hour": "21993.4093388699",
                "miles_per_hour": "13665.8492639217"
            },
            "miss_distance": {
                "astronomical": "1.4424117031",
                "lunar": "561.0981525059",
                "kilometers": "215781718.446832397",
                "miles": "134080542.4454931986"
            },
            "orbiting_body": "Juptr"
        },
        {
            "close_approach_date": "2044-09-23",
            "close_approach_date_full": "2044-Sep-23 21:55",
            "epoch_date_close_approach": 2358280500000,
            "relative_velocity": {
                "kilometers_per_second": "6.3170553295",
                "kilometers_per_hour": "22741.3991862944",
                "miles_per_hour": "14130.6210666172"
            },
            "miss_distance": {
                "astronomical": "1.8673828845",
                "lunar": "726.4119420705",
                "kilometers": "279356501.995656015",
                "miles": "173584081.139302407"
            },
            "orbiting_body": "Juptr"
        }
    ],
    "orbital_data": {
        "orbit_id": "14",
        "orbit_determination_date": "2017-04-06 08:35:45",
        "first_observation_date": "2015-02-09",
        "last_observation_date": "2015-03-23",
        "data_arc_in_days": 42,
        "observations_used": 46,
        "orbit_uncertainty": "6",
        "minimum_orbit_intersection": ".31346",
        "jupiter_tisserand_invariant": "3.129",
        "epoch_osculation": "2459000.5",
        "eccentricity": ".52206786469671",
        "semi_major_axis": "2.715770974992938",
        "inclination": "10.09710974548395",
        "ascending_node_longitude": "308.1136893174346",
        "orbital_period": "1634.700293314033",
        "perihelion_distance": "1.297954221073073",
        "perihelion_argument": "190.2511052371007",
        "aphelion_distance": "4.133587728912803",
        "perihelion_time": "2458696.391614768524",
        "mean_anomaly": "66.97192086592463",
        "mean_motion": ".2202238547777897",
        "equinox": "J2000",
        "orbit_class": {
            "orbit_class_type": "AMO",
            "orbit_class_description": "Near-Earth asteroid orbits similar to that of 1221 Amor",
            "orbit_class_range": "1.017 AU < q (perihelion) < 1.3 AU"
        }
    },
    "is_sentry_object": false
}